*******************************************************************************
 Revised: July 31, 2013             Moon / (Earth)                          301
 
 GEOPHYSICAL DATA (updated 2018-Aug-15):
  Vol. mean radius, km  = 1737.53+-0.03    Mass, x10^22 kg       =    7.349
  Radius (gravity), km  = 1738.0           Surface emissivity    =    0.92
  Radius (IAU), km      = 1737.4           GM, km^3/s^2          = 4902.800066
  Density, g/cm^3       =    3.3437        GM 1-sigma, km^3/s^2  =  +-0.0001  
  V(1,0)                =   +0.21          Surface accel., m/s^2 =    1.62
  Earth/Moon mass ratio = 81.3005690769    Farside crust. thick. = ~80 - 90 km
  Mean crustal density  = 2.97+-.07 g/cm^3 Nearside crust. thick.= 58+-8 km 
  Heat flow, Apollo 15  = 3.1+-.6 mW/m^2   Mean angular diameter = 31'05.2"
  Heat flow, Apollo 17  = 2.2+-.5 mW/m^2   Sid. rot. rate, rad/s = 0.0000026617
  Geometric Albedo      = 0.12             Mean solar day        = 29.5306 d
  Obliquity to orbit    = 6.67 deg         Orbit period          = 27.321582 d
  Semi-major axis, a    = 384400 km        Eccentricity          = 0.05490
  Mean motion, rad/s    = 2.6616995x10^-6  Inclination           = 5.145 deg
  Apsidal period        = 3231.50 d        Nodal period          = 6798.38 d
                                 Perihelion  Aphelion    Mean
  Solar Constant (W/m^2)         1414+-7     1323+-7     1368+-7
  Maximum Planetary IR (W/m^2)   1314        1226        1268
  Minimum Planetary IR (W/m^2)      5.2         5.2         5.2
********************************************************************************


*******************************************************************************
Ephemeris / WWW_USER Wed Sep 25 11:42:58 2024 Pasadena, USA      / Horizons    
*******************************************************************************
Target body name: Moon (301)                      {source: DE441}
Center body name: Mars Barycenter (4)             {source: DE441}
Center-site name: BODYCENTRIC
*******************************************************************************
Start time      : A.D. 2022-Jan-01 00:00:00.0000 UT      
Stop  time      : A.D. 2023-Feb-01 00:00:00.0000 UT      
Step-size       : 1000 steps
*******************************************************************************
Target pole/equ : MOON_ME                         {East-longitude positive}
Target radii    : 1737.4, 1737.4, 1737.4 km       {Equator_a, b, pole_c}       
Center geodetic : 0.0, 0.0, 0.0                   {E-lon(deg),Lat(deg),Alt(km)}
Center cylindric: 0.0, 0.0, 0.0                   {E-lon(deg),Dxy(km),Dz(km)}
Center pole/equ : ICRF
Center radii    : undefined                                                    
Target primary  : Earth
Vis. interferer : None
Rel. light bend : Sun, MARS                       {source: mar097}
Rel. lght bnd GM: 1.3271E+11, 4.2828E+04 km^3/s^2                              
Atmos refraction: NO (AIRLESS)
RA format       : HMS
Time format     : CAL 
Calendar mode   : Mixed Julian/Gregorian
EOP file        : eop.240924.p241218                                           
EOP coverage    : DATA-BASED 1962-JAN-20 TO 2024-SEP-24. PREDICTS-> 2024-DEC-17
Units conversion: 1 au= 149597870.700 km, c= 299792.458 km/s, 1 day= 86400.0 s 
Table cut-offs 1: Elevation (-90.0deg=NO ),Airmass     n.a.    , Daylight (NO )
Table cut-offs 2: Solar elongation (  0.0,180.0=NO ),Local Hour Angle( 0.0=NO )
Table cut-offs 3: RA/DEC angular rate (     0.0=NO )                           
Table format    : Comma Separated Values (spreadsheet)
***********************************************************************************************
 Date__(UT)__HR:MN:SC.fff, , , SunSub-LON, SunSub-LAT,                r,       rdot,  Tru_Anom,
***********************************************************************************************
$$SOE
 2022-May-05 17:45:36.000, , , 124.305908,  -0.218732,   1.007013534963,  1.1355738,      n.a.,
 2022-May-06 03:15:50.400, , , 119.464893,  -0.211315,   1.007277586828,  1.1727051,      n.a.,
 2022-May-06 12:46:04.800, , , 114.624601,  -0.203849,   1.007549634060,  1.2054589,      n.a.,
 2022-May-06 22:16:19.200, , , 109.785070,  -0.196307,   1.007828655148,  1.2336585,      n.a.,
 2022-May-07 07:46:33.600, , , 104.946333,  -0.188660,   1.008113588813,  1.2571326,      n.a.,
 2022-May-07 17:16:48.000, , , 100.108420,  -0.180878,   1.008403334984,  1.2757133,      n.a.,
 2022-May-08 02:47:02.400, , ,  95.271359,  -0.172931,   1.008696755510,  1.2892352,      n.a.,
 2022-May-08 12:17:16.800, , ,  90.435170,  -0.164789,   1.008992674705,  1.2975354,      n.a.,
 2022-May-08 21:47:31.200, , ,  85.599872,  -0.156421,   1.009289879907,  1.3004537,      n.a.,
 2022-May-09 07:17:45.600, , ,  80.765480,  -0.147799,   1.009587122212,  1.2978337,      n.a.,
 2022-May-09 16:48:00.000, , ,  75.932002,  -0.138895,   1.009883117600,  1.2895252,      n.a.,
 2022-May-10 02:18:14.400, , ,  71.099442,  -0.129681,   1.010176548692,  1.2753873,      n.a.,
 2022-May-10 11:48:28.800, , ,  66.267800,  -0.120133,   1.010466067375,  1.2552930,      n.a.,
 2022-May-10 21:18:43.200, , ,  61.437068,  -0.110231,   1.010750298598,  1.2291348,      n.a.,
 2022-May-11 06:48:57.600, , ,  56.607232,  -0.099956,   1.011027845605,  1.1968317,      n.a.,
 2022-May-11 16:19:12.000, , ,  51.778274,  -0.089293,   1.011297296901,  1.1583374,      n.a.,
 2022-May-12 01:49:26.400, , ,  46.950165,  -0.078233,   1.011557235216,  1.1136492,      n.a.,
 2022-May-12 11:19:40.800, , ,  42.122870,  -0.066770,   1.011806248683,  1.0628187,      n.a.,
 2022-May-12 20:49:55.200, , ,  37.296347,  -0.054904,   1.012042944412,  1.0059622,      n.a.,
 2022-May-13 06:20:09.600, , ,  32.470542,  -0.042641,   1.012265964474,  0.9432709,      n.a.,
 2022-May-13 15:50:24.000, , ,  27.645396,  -0.029992,   1.012474004256,  0.8750212,      n.a.,
 2022-May-14 01:20:38.400, , ,  22.820839,  -0.016974,   1.012665832908,  0.8015831,      n.a.,
 2022-May-14 10:50:52.800, , ,  17.996792,  -0.003611,   1.012840315463,  0.7234258,      n.a.,
 2022-May-14 20:21:07.200, , ,  13.173169,   0.010068,   1.012996435973,  0.6411209,      n.a.,
 2022-May-15 05:51:21.600, , ,   8.349873,   0.024029,   1.013133320838,  0.5553411,      n.a.,
 2022-May-15 15:21:36.000, , ,   3.526804,   0.038233,   1.013250261309,  0.4668538,      n.a.,
 2022-May-16 00:51:50.400, , , 358.703853,   0.052636,   1.013346734071,  0.3765107,      n.a.,
 2022-May-16 10:22:04.800, , , 353.880908,   0.067194,   1.013422418758,  0.2852319,      n.a.,
 2022-May-16 19:52:19.200, , , 349.057853,   0.081859,   1.013477211346,  0.1939855,      n.a.,
 2022-May-17 05:22:33.600, , , 344.234571,   0.096583,   1.013511232533,  0.1037641,      n.a.,
 2022-May-17 14:52:48.000, , , 339.410946,   0.111319,   1.013524830485,  0.0155599,      n.a.,
 2022-May-18 00:23:02.400, , , 334.586864,   0.126021,   1.013518577678, -0.0696620,      n.a.,
 2022-May-18 09:53:16.800, , , 329.762215,   0.140647,   1.013493261915, -0.1509878,      n.a.,
 2022-May-18 19:23:31.200, , , 324.936897,   0.155159,   1.013449871995, -0.2275771,      n.a.,
 2022-May-19 04:53:45.600, , , 320.110814,   0.169522,   1.013389578785, -0.2986809,      n.a.,
 2022-May-19 14:24:00.000, , , 315.283877,   0.183708,   1.013313712714, -0.3636547,      n.a.,
 2022-May-19 23:54:14.400, , , 310.456011,   0.197693,   1.013223738818, -0.4219669,      n.a.,
 2022-May-20 09:24:28.800, , , 305.627149,   0.211458,   1.013121230491, -0.4732016,      n.a.,
 2022-May-20 18:54:43.200, , , 300.797233,   0.224989,   1.013007843038, -0.5170579,      n.a.,
 2022-May-21 04:24:57.600, , , 295.966220,   0.238278,   1.012885287968, -0.5533443,      n.a.,
 2022-May-21 13:55:12.000, , , 291.134076,   0.251319,   1.012755308796, -0.5819708,      n.a.,
 2022-May-21 23:25:26.400, , , 286.300776,   0.264110,   1.012619658875, -0.6029394,      n.a.,
 2022-May-22 08:55:40.800, , , 281.466309,   0.276652,   1.012480081623, -0.6163334,      n.a.,
 2022-May-22 18:25:55.200, , , 276.630670,   0.288950,   1.012338293265, -0.6223054,      n.a.,
 2022-May-23 03:56:09.600, , , 271.793866,   0.301008,   1.012195968110, -0.6210674,      n.a.,
 2022-May-23 13:26:24.000, , , 266.955911,   0.312831,   1.012054726223, -0.6128802,      n.a.,
 2022-May-23 22:56:38.400, , , 262.116827,   0.324427,   1.011916123302, -0.5980444,      n.a.,
 2022-May-24 08:26:52.800, , , 257.276645,   0.335802,   1.011781642499, -0.5768926,      n.a.,
 2022-May-24 17:57:07.200, , , 252.435399,   0.346962,   1.011652687927, -0.5497823,      n.a.,
 2022-May-25 03:27:21.600, , , 247.593133,   0.357912,   1.011530579592, -0.5170905,      n.a.,
 2022-May-25 12:57:36.000, , , 242.749892,   0.368657,   1.011416549487, -0.4792092,      n.a.,
 2022-May-25 22:27:50.400, , , 237.905731,   0.379200,   1.011311738661, -0.4365411,      n.a.,
 2022-May-26 07:58:04.800, , , 233.060705,   0.389546,   1.011217195062, -0.3894971,      n.a.,
 2022-May-26 17:28:19.200, , , 228.214874,   0.399694,   1.011133872012, -0.3384933,      n.a.,
 2022-May-27 02:58:33.600, , , 223.368302,   0.409646,   1.011062627213, -0.2839495,      n.a.,
 2022-May-27 12:28:48.000, , , 218.521055,   0.419401,   1.011004222193, -0.2262867,      n.a.,
 2022-May-27 21:59:02.400, , , 213.673202,   0.428960,   1.010959322145, -0.1659259,      n.a.,
 2022-May-28 07:29:16.800, , , 208.824814,   0.438320,   1.010928496116, -0.1032866,      n.a.,
 2022-May-28 16:59:31.200, , , 203.975964,   0.447481,   1.010912217541, -0.0387852,      n.a.,
 2022-May-29 02:29:45.600, , , 199.126723,   0.456441,   1.010910865094,  0.0271664,      n.a.,
 2022-May-29 12:00:00.000, , , 194.277168,   0.465200,   1.010924723858,  0.0941618,      n.a.,
 2022-May-29 21:30:14.400, , , 189.427371,   0.473758,   1.010953986802,  0.1618021,      n.a.,
 2022-May-30 07:00:28.800, , , 184.577408,   0.482116,   1.010998756554,  0.2296965,      n.a.,
